H1 CPF 01  gfz 2022 08 25 12  7372 tandemx   
H2 1003001  6202 36605    2022 08 25 12 59 42 2022 08 30 00 00 42   120 1 1  0 0 0
H9
10 0 59817  26622.000000  0   -4374107.546    905135.092  -5251707.237
10 0 59817  26742.000000  0   -4952389.454   1256110.320  -4628516.731
10 0 59817  26862.000000  0   -5438534.778   1594559.725  -3924277.973
10 0 59817  26982.000000  0   -5824272.541   1912883.409  -3151247.066
10 0 59817  27102.000000  0   -6103196.074   2203691.809  -2322915.951
10 0 59817  27222.000000  0   -6270881.525   2459971.657  -1453780.645
10 0 59817  27342.000000  0   -6324969.155   2675248.601   -559087.120
10 0 59817  27462.000000  0   -6265204.593   2843741.601    345440.755
10 0 59817  27582.000000  0   -6093436.931   2960505.006   1243885.398
10 0 59817  27702.000000  0   -5813573.881   3021555.137   2120424.356
10 0 59817  27822.000000  0   -5431495.045   3023977.025   2959617.945
10 0 59817  27942.000000  0   -4954926.710   2966009.235   3746689.022
10 0 59817  28062.000000  0   -4393279.662   2847103.633   4467789.551
10 0 59817  28182.000000  0   -3757455.667   2667959.594   5110246.248
10 0 59817  28302.000000  0   -3059628.794   2430532.737   5662782.793
10 0 59817  28422.000000  0   -2313004.928   2138017.830   6115715.818
10 0 59817  28542.000000  0   -1531565.075   1794805.593   6461119.762
10 0 59817  28662.000000  0    -729798.620   1406415.128   6692958.816
10 0 59817  28782.000000  0      77566.412    979403.284   6807185.219
10 0 59817  28902.000000  0     875833.291    521252.977   6801805.469
10 0 59817  29022.000000  0    1650603.074     40242.277   6676912.667
10 0 59817  29142.000000  0    2388033.101   -454704.323   6434685.501
10 0 59817  29262.000000  0    3075084.116   -954180.918   6079353.623
10 0 59817  29382.000000  0    3699753.041  -1448477.673   5617128.919
10 0 59817  29502.000000  0    4251286.719  -1927769.323   5056102.257
10 0 59817  29622.000000  0    4720371.599  -2382310.222   4406107.532
10 0 59817  29742.000000  0    5099298.461  -2802633.198   3678555.416
10 0 59817  29862.000000  0    5382097.841  -3179748.188   2886235.413
10 0 59817  29982.000000  0    5564640.468  -3505334.713   2043089.611
10 0 59817  30102.000000  0    5644701.055  -3771924.781   1163964.803
10 0 59817  30222.000000  0    5621984.860  -3973071.728    264345.041
10 0 59817  30342.000000  0    5498114.832  -4103499.052   -639928.609
10 0 59817  30462.000000  0    5276580.150  -4159227.104  -1532946.430
10 0 59817  30582.000000  0    4962646.681  -4137672.315  -2399018.727
10 0 59817  30702.000000  0    4563232.037  -4037718.044  -3222958.125
10 0 59817  30822.000000  0    4086749.584  -3859755.417  -3990349.856
10 0 59817  30942.000000  0    3542925.048  -3605693.161  -4687804.004
10 0 59817  31062.000000  0    2942591.701  -3278937.158  -5303185.542
10 0 59817  31182.000000  0    2297469.020  -2884340.646  -5825817.516
10 0 59817  31302.000000  0    1619931.416  -2428128.369  -6246655.478
10 0 59817  31422.000000  0     922770.489  -1917795.285  -6558434.684
10 0 59817  31542.000000  0     218954.114  -1361979.904  -6755785.157
10 0 59817  31662.000000  0    -478611.327   -770317.528  -6835313.634
10 0 59817  31782.000000  0   -1157311.837   -153275.559  -6795654.603
10 0 59817  31902.000000  0   -1805048.567    478027.397  -6637490.913
10 0 59817  32022.000000  0   -2410448.455   1112016.643  -6363542.692
10 0 59817  32142.000000  0   -2963059.466   1736868.157  -5978525.748
10 0 59817  32262.000000  0   -3453529.180   2340724.004  -5489079.714
10 0 59817  32382.000000  0   -3873765.163   2911914.735  -4903665.691
10 0 59817  32502.000000  0   -4217073.640   3439184.447  -4232430.873
10 0 59817  32622.000000  0   -4478271.543   3911913.580  -3487042.166
10 0 59817  32742.000000  0   -4653770.491   4320335.835  -2680492.375
10 0 59817  32862.000000  0   -4741631.756   4655743.805  -1826878.920
10 0 59817  32982.000000  0   -4741589.055   4910678.299   -941159.490
10 0 59817  33102.000000  0   -4655039.120   5079097.184    -38887.405
10 0 59817  33222.000000  0   -4484996.496   5156517.779    864068.072
10 0 59817  33342.000000  0   -4236017.067   5140128.904   1751808.803
10 0 59817  33462.000000  0   -3914088.737   5028868.728   2608698.489
10 0 59817  33582.000000  0   -3526492.479   4823466.300   3419646.562
10 0 59817  33702.000000  0   -3081638.901   4526447.214   4170379.844
10 0 59817  33822.000000  0   -2588885.221   4142103.544   4847697.742
10 0 59817  33942.000000  0   -2058335.770   3676427.936   5439705.867
10 0 59817  34062.000000  0   -1500631.747   3137013.797   5936023.246
10 0 59817  34182.000000  0    -926734.881   2532924.736   6327959.807
10 0 59817  34302.000000  0    -347710.744   1874536.163   6608661.430
10 0 59817  34422.000000  0     225483.840   1173354.161   6773223.918
10 0 59817  34542.000000  0     782208.016    441812.041   6818773.630
10 0 59817  34662.000000  0    1312333.440   -306949.761   6744513.863
10 0 59817  34782.000000  0    1806427.613  -1059318.922   6551738.914
10 0 59817  34902.000000  0    2255921.532  -1801458.167   6243813.008
10 0 59817  35022.000000  0    2653259.293  -2519559.397   5826116.389
10 0 59817  35142.000000  0    2992027.618  -3200102.050   5305956.633
10 0 59817  35262.000000  0    3267061.730  -3830110.314   4692446.479
10 0 59817  35382.000000  0    3474526.921  -4397404.852   3996349.961
10 0 59817  35502.000000  0    3611973.904  -4890844.640   3229896.838
10 0 59817  35622.000000  0    3678365.428  -5300552.108   2406568.555
10 0 59817  35742.000000  0    3674074.278  -5618117.226   1540859.125
10 0 59817  35862.000000  0    3600851.911  -5836774.825    648015.049
10 0 59817  35982.000000  0    3461768.478  -5951549.510   -256239.607
10 0 59817  36102.000000  0    3261127.209  -5959367.697  -1155988.165
10 0 59817  36222.000000  0    3004351.477  -5859129.745  -2035411.643
10 0 59817  36342.000000  0    2697850.555  -5651742.435  -2879073.739
10 0 59817  36462.000000  0    2348867.164  -5340111.187  -3672198.076
10 0 59817  36582.000000  0    1965309.828  -4929091.443  -4400929.785
10 0 59817  36702.000000  0    1555575.200  -4425401.980  -5052574.711
10 0 59817  36822.000000  0    1128366.909  -3837504.370  -5615814.043
10 0 59817  36942.000000  0     692513.391  -3175451.497  -6080892.107
10 0 59817  37062.000000  0     256788.066  -2450708.710  -6439774.308
10 0 59817  37182.000000  0    -170263.815  -1675951.416  -6686274.542
10 0 59817  37302.000000  0    -580488.310   -864842.850  -6816151.511
10 0 59817  37422.000000  0    -966273.556    -31795.534  -6827173.946
10 0 59817  37542.000000  0   -1320687.219    808279.577  -6719153.691
10 0 59817  37662.000000  0   -1637598.158   1640232.881  -6493948.268
10 0 59817  37782.000000  0   -1911779.941   2448942.404  -6155432.161
10 0 59817  37902.000000  0   -2138996.503   3219582.958  -5709438.823
10 0 59817  38022.000000  0   -2316067.934   3937895.658  -5163670.214
10 0 59817  38142.000000  0   -2440915.475   4590452.587  -4527575.751
10 0 59817  38262.000000  0   -2512584.981   5164912.579  -3812199.027
10 0 59817  38382.000000  0   -2531246.928   5650260.757  -3029994.162
10 0 59817  38502.000000  0   -2498173.052   6037028.035  -2194616.645
10 0 59817  38622.000000  0   -2415690.526   6317487.243  -1320688.338
10 0 59817  38742.000000  0   -2287113.553   6485816.322   -423540.088
10 0 59817  38862.000000  0   -2116654.639   6538227.491    481059.347
10 0 59817  38982.000000  0   -1909316.812   6473059.669   1377189.020
10 0 59817  39102.000000  0   -1670767.408   6290823.487   2249067.846
10 0 59817  39222.000000  0   -1407198.509   5994201.415   3081341.060
10 0 59817  39342.000000  0   -1125178.629   5588005.347   3859356.904
10 0 59817  39462.000000  0    -831499.544   5079093.173   4569429.529
10 0 59817  39582.000000  0    -533020.114   4476243.820   5199083.853
10 0 59817  39702.000000  0    -236510.803   3789994.736   5737272.152
10 0 59817  39822.000000  0      51494.217   3032450.226   6174564.601
10 0 59817  39942.000000  0     324836.568   2217059.471   6503309.496
10 0 59817  40062.000000  0     577861.817   1358372.939   6717760.933
10 0 59817  40182.000000  0     805533.877    471779.171   6814173.543
10 0 59817  40302.000000  0    1003533.358   -426771.061   6790862.918
10 0 59817  40422.000000  0    1168338.676  -1321050.717   6648234.436
10 0 59817  40542.000000  0    1297288.728  -2194849.306   6388777.003
10 0 59817  40662.000000  0    1388626.038  -3032266.885   6017022.954
10 0 59817  40782.000000  0    1441519.436  -3818005.679   5539473.242
10 0 59817  40902.000000  0    1456065.991  -4537652.145   4964488.106
10 0 59817  41022.000000  0    1433273.481  -5177945.347   4302147.130
10 0 59817  41142.000000  0    1375022.678  -5727030.062   3564078.684
10 0 59817  41262.000000  0    1284010.002  -6174686.453   2763257.008
10 0 59817  41382.000000  0    1163671.328  -6512528.705   1913773.381
10 0 59817  41502.000000  0    1018088.644  -6734171.383   1030586.051
10 0 59817  41622.000000  0     851882.394  -6835357.967    129251.314
10 0 59817  41742.000000  0     670090.969  -6814048.062   -774359.654
10 0 59817  41862.000000  0     478040.189  -6670456.883  -1664351.270
10 0 59817  41982.000000  0     281208.773  -6407048.129  -2525091.183
10 0 59817  42102.000000  0      85092.136  -6028483.558  -3341490.308
10 0 59817  42222.000000  0    -104932.572  -5541530.081  -4099270.948
10 0 59817  42342.000000  0    -283736.818  -4954925.541  -4785216.645
10 0 59817  42462.000000  0    -446562.913  -4279208.927  -5387397.740
10 0 59817  42582.000000  0    -589135.557  -3526520.169  -5895371.223
10 0 59817  42702.000000  0    -707760.054  -2710373.498  -6300351.769
10 0 59817  42822.000000  0    -799405.807  -1845409.710  -6595352.372
10 0 59817  42942.000000  0    -861773.731   -947132.614  -6775293.409
10 0 59817  43062.000000  0    -893346.772    -31634.011  -6837081.309
99
